[{"OBJECT_NAME":"ONEWEB-0171","OBJECT_ID":"2021-025AE","EPOCH":"2026-03-09T18:12:45.832320","MEAN_MOTION":13.13468811,"ECCENTRICITY":0.00017587,"INCLINATION":87.9035,"RA_OF_ASC_NODE":340.0119,"ARG_OF_PERICENTER":84.3332,"MEAN_ANOMALY":275.7998,"EPHEMERIS_TYPE":0,"CLASSIFICATION_TYPE":"U","NORAD_CAT_ID":48070,"ELEMENT_SET_NO":999,"REV_AT_EPOCH":24056,"BSTAR":-1.6533471e-5,"MEAN_MOTION_DOT":7.0e-8,"MEAN_MOTION_DDOT":0},{"OBJECT_NAME":"UNKNOWN","OBJECT_ID":"","EPOCH":"2026-03-07T10:33:14.055264","MEAN_MOTION":13.38051437,"ECCENTRICITY":0.0216031,"INCLINATION":67.1402,"RA_OF_ASC_NODE":350.1222,"ARG_OF_PERICENTER":335.0066,"MEAN_ANOMALY":135.7908,"EPHEMERIS_TYPE":0,"CLASSIFICATION_TYPE":"U","NORAD_CAT_ID":81317,"ELEMENT_SET_NO":999,"REV_AT_EPOCH":59996,"BSTAR":0.00045322,"MEAN_MOTION_DOT":2.09e-6,"MEAN_MOTION_DDOT":0}]
